{"type": "FeatureCollection", "features": [ {"type": "Feature", "properties": {"norad_id": 31092, "name": "FENGYUN 1C DEB", "group": "fengyun-1c-debris", "lat": -28.462547682035318, "lon": 110.57645898688233, "alt_km": 1316.9187045253348, "timestamp": "2025-12-15T10:55:21.423722+00:00", "meta": {"OBJECT_NAME": "FENGYUN 1C DEB", "OBJECT_ID": "1999-025BGN", "EPOCH": "2025-12-14T06:32:26.908224", "MEAN_MOTION": 13.46538105, "ECCENTRICITY": 0.03266275, "INCLINATION": 99.7226, "RA_OF_ASC_NODE": 104.0946, "ARG_OF_PERICENTER": 132.9015, "MEAN_ANOMALY": 230.0032, "EPHEMERIS_TYPE": 0, "CLASSIFICATION_TYPE": "U", "NORAD_CAT_ID": 31092, "ELEMENT_SET_NO": 999, "REV_AT_EPOCH": 91902, "BSTAR": 0.0020408728, "MEAN_MOTION_DOT": 1.66e-05, "MEAN_MOTION_DDOT": 0}, "tle": {"line1": "1 31092U 99025BGN 25348.27253366  .00001660  00000+0  20409-2 0  9995", "line2": "2 31092  99.7226 104.0946 0326627 132.9015 230.0032 13.46538105919020"}}, "geometry": {"type": "Point", "coordinates": [110.57645898688233, -28.462547682035318]}}, {"type": "Feature", "properties": {"norad_id": 31093, "name": "FENGYUN 1C DEB", "group": "fengyun-1c-debris", "lat": 77.31606004840299, "lon": 50.43117269616839, "alt_km": 1019.9400997232842, "timestamp": "2025-12-15T10:55:21.423732+00:00", "meta": {"OBJECT_NAME": "FENGYUN 1C DEB", "OBJECT_ID": "1999-025BGP", "EPOCH": "2025-12-13T20:09:40.263840", "MEAN_MOTION": 13.80633666, "ECCENTRICITY": 0.02082237, "INCLINATION": 98.5948, "RA_OF_ASC_NODE": 186.7421, "ARG_OF_PERICENTER": 220.1991, "MEAN_ANOMALY": 138.3605, "EPHEMERIS_TYPE": 0, "CLASSIFICATION_TYPE": "U", "NORAD_CAT_ID": 31093, "ELEMENT_SET_NO": 999, "REV_AT_EPOCH": 94522, "BSTAR": 0.00056404176, "MEAN_MOTION_DOT": 6.58e-06, "MEAN_MOTION_DDOT": 0}, "tle": {"line1": "1 31093U 99025BGP 25347.84004935  .00000658  00000+0  56404-3 0  9995", "line2": "2 31093  98.5948 186.7421 0208223 220.1991 138.3605 13.80633666945221"}}, "geometry": {"type": "Point", "coordinates": [50.43117269616839, 77.31606004840299]}}, {"type": "Feature", "properties": {"norad_id": 31094, "name": "FENGYUN 1C DEB", "group": "fengyun-1c-debris", "lat": 73.31052678454068, "lon": -174.10238313775088, "alt_km": 817.0397473249286, "timestamp": "2025-12-15T10:55:21.423742+00:00", "meta": {"OBJECT_NAME": "FENGYUN 1C DEB", "OBJECT_ID": "1999-025BGQ", "EPOCH": "2025-12-13T20:53:24.077184", "MEAN_MOTION": 14.02049581, "ECCENTRICITY": 0.01064772, "INCLINATION": 98.8567, "RA_OF_ASC_NODE": 215.6939, "ARG_OF_PERICENTER": 43.8627, "MEAN_ANOMALY": 317.0933, "EPHEMERIS_TYPE": 0, "CLASSIFICATION_TYPE": "U", "NORAD_CAT_ID": 31094, "ELEMENT_SET_NO": 999, "REV_AT_EPOCH": 95635, "BSTAR": 0.0018512913, "MEAN_MOTION_DOT": 2.928e-05, "MEAN_MOTION_DDOT": 0}, "tle": {"line1": "1 31094U 99025BGQ 25347.87041756  .00002928  00000+0  18513-2 0  9991", "line2": "2 31094  98.8567 215.6939 0106477  43.8627 317.0933 14.02049581956350"}}, "geometry": {"type": "Point", "coordinates": [-174.10238313775088, 73.31052678454068]}}, {"type": "Feature", "properties": {"norad_id": 31095, "name": "FENGYUN 1C DEB", "group": "fengyun-1c-debris", "lat": -39.49323545718526, "lon": 138.49425409351954, "alt_km": 1500.2929728857052, "timestamp": "2025-12-15T10:55:21.423752+00:00", "meta": {"OBJECT_NAME": "FENGYUN 1C DEB", "OBJECT_ID": "1999-025BGR", "EPOCH": "2025-12-14T20:26:36.661344", "MEAN_MOTION": 13.06668789, "ECCENTRICITY": 0.05000467, "INCLINATION": 98.5618, "RA_OF_ASC_NODE": 130.8795, "ARG_OF_PERICENTER": 186.8099, "MEAN_ANOMALY": 172.604, "EPHEMERIS_TYPE": 0, "CLASSIFICATION_TYPE": "U", "NORAD_CAT_ID": 31095, "ELEMENT_SET_NO": 999, "REV_AT_EPOCH": 89475, "BSTAR": 0.00089791832, "MEAN_MOTION_DOT": 5.14e-06, "MEAN_MOTION_DDOT": 0}, "tle": {"line1": "1 31095U 99025BGR 25348.85181321  .00000514  00000+0  89792-3 0  9991", "line2": "2 31095  98.5618 130.8795 0500046 186.8099 172.6040 13.06668789894753"}}, "geometry": {"type": "Point", "coordinates": [138.49425409351954, -39.49323545718526]}}, {"type": "Feature", "properties": {"norad_id": 31097, "name": "FENGYUN 1C DEB", "group": "fengyun-1c-debris", "lat": -16.11537877249879, "lon": -70.2276729847146, "alt_km": 735.699158539891, "timestamp": "2025-12-15T10:55:21.423761+00:00", "meta": {"OBJECT_NAME": "FENGYUN 1C DEB", "OBJECT_ID": "1999-025BGT", "EPOCH": "2025-12-14T19:47:19.569120", "MEAN_MOTION": 14.47039686, "ECCENTRICITY": 0.00154859, "INCLINATION": 98.8584, "RA_OF_ASC_NODE": 111.6955, "ARG_OF_PERICENTER": 264.7103, "MEAN_ANOMALY": 248.6362, "EPHEMERIS_TYPE": 0, "CLASSIFICATION_TYPE": "U", "NORAD_CAT_ID": 31097, "ELEMENT_SET_NO": 999, "REV_AT_EPOCH": 97068, "BSTAR": 0.0023086835, "MEAN_MOTION_DOT": 8.377e-05, "MEAN_MOTION_DDOT": 0}, "tle": {"line1": "1 31097U 99025BGT 25348.82453205  .00008377  00000+0  23087-2 0  9992", "line2": "2 31097  98.8584 111.6955 0015485 264.7103 248.6362 14.47039686970687"}}, "geometry": {"type": "Point", "coordinates": [-70.2276729847146, -16.11537877249879]}}, {"type": "Feature", "properties": {"norad_id": 31098, "name": "FENGYUN 1C DEB", "group": "fengyun-1c-debris", "lat": 69.59839404433306, "lon": -47.61908263540701, "alt_km": 720.9095742847067, "timestamp": "2025-12-15T10:55:21.423774+00:00", "meta": {"OBJECT_NAME": "FENGYUN 1C DEB", "OBJECT_ID": "1999-025BGU", "EPOCH": "2025-12-14T21:11:21.016032", "MEAN_MOTION": 14.51582696, "ECCENTRICITY": 0.00148827, "INCLINATION": 98.8696, "RA_OF_ASC_NODE": 106.9522, "ARG_OF_PERICENTER": 243.4222, "MEAN_ANOMALY": 116.5446, "EPHEMERIS_TYPE": 0, "CLASSIFICATION_TYPE": "U", "NORAD_CAT_ID": 31098, "ELEMENT_SET_NO": 999, "REV_AT_EPOCH": 96988, "BSTAR": 0.0020506534, "MEAN_MOTION_DOT": 8.182e-05, "MEAN_MOTION_DDOT": 0}, "tle": {"line1": "1 31098U 99025BGU 25348.88288213  .00008182  00000+0  20507-2 0  9992", "line2": "2 31098  98.8696 106.9522 0014882 243.4222 116.5446 14.51582696969880"}}, "geometry": {"type": "Point", "coordinates": [-47.61908263540701, 69.59839404433306]}}, {"type": "Feature", "properties": {"norad_id": 31099, "name": "FENGYUN 1C DEB", "group": "fengyun-1c-debris", "lat": 63.11902291793515, "lon": -136.09013244431665, "alt_km": 831.7162962916227, "timestamp": "2025-12-15T10:55:21.423784+00:00", "meta": {"OBJECT_NAME": "FENGYUN 1C DEB", "OBJECT_ID": "1999-025BGV", "EPOCH": "2025-12-14T16:23:10.874400", "MEAN_MOTION": 14.2792499, "ECCENTRICITY": 0.00625391, "INCLINATION": 98.9389, "RA_OF_ASC_NODE": 241.2087, "ARG_OF_PERICENTER": 275.7203, "MEAN_ANOMALY": 140.5011, "EPHEMERIS_TYPE": 0, "CLASSIFICATION_TYPE": "U", "NORAD_CAT_ID": 31099, "ELEMENT_SET_NO": 999, "REV_AT_EPOCH": 97499, "BSTAR": 0.00035308825, "MEAN_MOTION_DOT": 8.46e-06, "MEAN_MOTION_DDOT": 0}, "tle": {"line1": "1 31099U 99025BGV 25348.68276475  .00000846  00000+0  35309-3 0  9994", "line2": "2 31099  98.9389 241.2087 0062539 275.7203 140.5011 14.27924990974992"}}, "geometry": {"type": "Point", "coordinates": [-136.09013244431665, 63.11902291793515]}}, {"type": "Feature", "properties": {"norad_id": 31146, "name": "FENGYUN 1C DEB", "group": "fengyun-1c-debris", "lat": -73.58442634363806, "lon": -46.962942495795865, "alt_km": 891.2070227569102, "timestamp": "2025-12-15T10:55:21.423795+00:00", "meta": {"OBJECT_NAME": "FENGYUN 1C DEB", "OBJECT_ID": "1999-025BGY", "EPOCH": "2025-12-14T18:28:22.318464", "MEAN_MOTION": 14.27709133, "ECCENTRICITY": 0.02126741, "INCLINATION": 99.0424, "RA_OF_ASC_NODE": 279.608, "ARG_OF_PERICENTER": 161.1345, "MEAN_ANOMALY": 199.787, "EPHEMERIS_TYPE": 0, "CLASSIFICATION_TYPE": "U", "NORAD_CAT_ID": 31146, "ELEMENT_SET_NO": 999, "REV_AT_EPOCH": 96794, "BSTAR": 0.00038549666, "MEAN_MOTION_DOT": 1.158e-05, "MEAN_MOTION_DDOT": 0}, "tle": {"line1": "1 31146U 99025BGY 25348.76970276  .00001158  00000+0  38550-3 0  9994", "line2": "2 31146  99.0424 279.6080 0212674 161.1345 199.7870 14.27709133967943"}}, "geometry": {"type": "Point", "coordinates": [-46.962942495795865, -73.58442634363806]}}, {"type": "Feature", "properties": {"norad_id": 31148, "name": "FENGYUN 1C DEB", "group": "fengyun-1c-debris", "lat": -61.39547873141893, "lon": 38.49998675166878, "alt_km": 845.995329399082, "timestamp": "2025-12-15T10:55:21.423805+00:00", "meta": {"OBJECT_NAME": "FENGYUN 1C DEB", "OBJECT_ID": "1999-025BHA", "EPOCH": "2025-12-14T10:30:44.462304", "MEAN_MOTION": 14.43371343, "ECCENTRICITY": 0.01368533, "INCLINATION": 98.867, "RA_OF_ASC_NODE": 234.0759, "ARG_OF_PERICENTER": 45.6916, "MEAN_ANOMALY": 315.5399, "EPHEMERIS_TYPE": 0, "CLASSIFICATION_TYPE": "U", "NORAD_CAT_ID": 31148, "ELEMENT_SET_NO": 999, "REV_AT_EPOCH": 97555, "BSTAR": 0.00097830969, "MEAN_MOTION_DOT": 3.647e-05, "MEAN_MOTION_DDOT": 0}, "tle": {"line1": "1 31148U 99025BHA 25348.43801461  .00003647  00000+0  97831-3 0  9991", "line2": "2 31148  98.8670 234.0759 0136853  45.6916 315.5399 14.43371343975553"}}, "geometry": {"type": "Point", "coordinates": [38.49998675166878, -61.39547873141893]}}, {"type": "Feature", "properties": {"norad_id": 31150, "name": "FENGYUN 1C DEB", "group": "fengyun-1c-debris", "lat": 55.10051046218977, "lon": -14.629380449838289, "alt_km": 845.8361666460514, "timestamp": "2025-12-15T10:55:21.423816+00:00", "meta": {"OBJECT_NAME": "FENGYUN 1C DEB", "OBJECT_ID": "1999-025BHC", "EPOCH": "2025-12-13T23:14:56.895648", "MEAN_MOTION": 14.127341, "ECCENTRICITY": 0.00153253, "INCLINATION": 98.686, "RA_OF_ASC_NODE": 356.5875, "ARG_OF_PERICENTER": 156.0686, "MEAN_ANOMALY": 264.8915, "EPHEMERIS_TYPE": 0, "CLASSIFICATION_TYPE": "U", "NORAD_CAT_ID": 31150, "ELEMENT_SET_NO": 999, "REV_AT_EPOCH": 96314, "BSTAR": 0.00021608255, "MEAN_MOTION_DOT": 3.59e-06, "MEAN_MOTION_DDOT": 0}, "tle": {"line1": "1 31150U 99025BHC 25347.96871407  .00000359  00000+0  21608-3 0  9994", "line2": "2 31150  98.6860 356.5875 0015325 156.0686 264.8915 14.12734100963147"}}, "geometry": {"type": "Point", "coordinates": [-14.629380449838289, 55.10051046218977]}}]}